{
  "links" : {
    "next" : "https://api.nasa.gov/neo/rest/v1/feed?start_date=2016-09-09&end_date=2016-09-09&detailed=true&api_key=t0TVs3DtDT2H8Oy2Zy8m2eVrNsAVKAexjcZXUckd",
    "prev" : "https://api.nasa.gov/neo/rest/v1/feed?start_date=2016-09-07&end_date=2016-09-07&detailed=true&api_key=t0TVs3DtDT2H8Oy2Zy8m2eVrNsAVKAexjcZXUckd",
    "self" : "https://api.nasa.gov/neo/rest/v1/feed?start_date=2016-09-08&end_date=2016-09-08&detailed=true&api_key=t0TVs3DtDT2H8Oy2Zy8m2eVrNsAVKAexjcZXUckd"
  },
  "element_count" : 14,
  "near_earth_objects" : {
    "2016-09-08" : [ {
      "links" : {
        "self" : "https://api.nasa.gov/neo/rest/v1/neo/3759720?api_key=t0TVs3DtDT2H8Oy2Zy8m2eVrNsAVKAexjcZXUckd"
      },
      "neo_reference_id" : "3759720",
      "name" : "(2016 SV1)",
      "nasa_jpl_url" : "http://ssd.jpl.nasa.gov/sbdb.cgi?sstr=3759720",
      "absolute_magnitude_h" : 21.8,
      "estimated_diameter" : {
        "kilometers" : {
          "estimated_diameter_min" : 0.1160259082,
          "estimated_diameter_max" : 0.2594418179
        },
        "meters" : {
          "estimated_diameter_min" : 116.0259082094,
          "estimated_diameter_max" : 259.4418179074
        },
        "miles" : {
          "estimated_diameter_min" : 0.0720951346,
          "estimated_diameter_max" : 0.1612096218
        },
        "feet" : {
          "estimated_diameter_min" : 380.6624406898,
          "estimated_diameter_max" : 851.1870938635
        }
      },
      "is_potentially_hazardous_asteroid" : false,
      "close_approach_data" : [ {
        "close_approach_date" : "2016-09-08",
        "epoch_date_close_approach" : 1473318000000,
        "relative_velocity" : {
          "kilometers_per_second" : "11.3520895304",
          "kilometers_per_hour" : "40867.5223094432",
          "miles_per_hour" : "25393.4890705538"
        },
        "miss_distance" : {
          "astronomical" : "0.260759621",
          "lunar" : "101.4354934692",
          "kilometers" : "39009084",
          "miles" : "24239122"
        },
        "orbiting_body" : "Earth"
      } ],
      "orbital_data" : {
        "orbit_id" : "6",
        "orbit_determination_date" : "2017-04-06 08:23:42",
        "orbit_uncertainty" : "5",
        "minimum_orbit_intersection" : ".17751",
        "jupiter_tisserand_invariant" : "4.477",
        "epoch_osculation" : "2458000.5",
        "eccentricity" : ".2025648142287438",
        "semi_major_axis" : "1.486600189919107",
        "inclination" : "21.08024392659721",
        "ascending_node_longitude" : "163.8029095254848",
        "orbital_period" : "662.0483427912479",
        "perihelion_distance" : "1.185467298615728",
        "perihelion_argument" : "180.3460898857109",
        "aphelion_distance" : "1.787733081222486",
        "perihelion_time" : "2458288.261214860106",
        "mean_anomaly" : "203.5249653931955",
        "mean_motion" : ".5437669377468897",
        "equinox" : "J2000"
      }
    }, {
      "links" : {
        "self" : "https://api.nasa.gov/neo/rest/v1/neo/3772978?api_key=t0TVs3DtDT2H8Oy2Zy8m2eVrNsAVKAexjcZXUckd"
      },
      "neo_reference_id" : "3772978",
      "name" : "(2017 FE101)",
      "nasa_jpl_url" : "http://ssd.jpl.nasa.gov/sbdb.cgi?sstr=3772978",
      "absolute_magnitude_h" : 19.109,
      "estimated_diameter" : {
        "kilometers" : {
          "estimated_diameter_min" : 0.4006406175,
          "estimated_diameter_max" : 0.8958596554
        },
        "meters" : {
          "estimated_diameter_min" : 400.6406175386,
          "estimated_diameter_max" : 895.8596553637
        },
        "miles" : {
          "estimated_diameter_min" : 0.2489464612,
          "estimated_diameter_max" : 0.5566612099
        },
        "feet" : {
          "estimated_diameter_min" : 1314.4377636452,
          "estimated_diameter_max" : 2939.1721917035
        }
      },
      "is_potentially_hazardous_asteroid" : false,
      "close_approach_data" : [ {
        "close_approach_date" : "2016-09-08",
        "epoch_date_close_approach" : 1473318000000,
        "relative_velocity" : {
          "kilometers_per_second" : "35.9468517369",
          "kilometers_per_hour" : "129408.6662530081",
          "miles_per_hour" : "80409.5126503761"
        },
        "miss_distance" : {
          "astronomical" : "0.4623719206",
          "lunar" : "179.8626708984",
          "kilometers" : "69169856",
          "miles" : "42980156"
        },
        "orbiting_body" : "Earth"
      } ],
      "orbital_data" : {
        "orbit_id" : "13",
        "orbit_determination_date" : "2017-04-29 06:18:33",
        "orbit_uncertainty" : "6",
        "minimum_orbit_intersection" : ".0517769",
        "jupiter_tisserand_invariant" : "4.108",
        "epoch_osculation" : "2458000.5",
        "eccentricity" : ".4056422128796646",
        "semi_major_axis" : "1.474045131616315",
        "inclination" : "53.57492250368969",
        "ascending_node_longitude" : "187.642183340195",
        "orbital_period" : "653.6790976660942",
        "perihelion_distance" : ".8761102025429766",
        "perihelion_argument" : "222.4366879064714",
        "aphelion_distance" : "2.071980060689654",
        "perihelion_time" : "2458318.586741341018",
        "mean_anomaly" : "184.8204244382007",
        "mean_motion" : ".5507289452658797",
        "equinox" : "J2000"
      }
    } ]
  }
}